[{"OBJECT_NAME":"BANDWAGON-2 OBJECT D","OBJECT_ID":"2024-247D","EPOCH":"2026-03-09T12:32:33.669888","MEAN_MOTION":15.29076102,"ECCENTRICITY":0.0003488,"INCLINATION":44.9954,"RA_OF_ASC_NODE":115.671,"ARG_OF_PERICENTER":351.1453,"MEAN_ANOMALY":8.9368,"EPHEMERIS_TYPE":0,"CLASSIFICATION_TYPE":"U","NORAD_CAT_ID":62380,"ELEMENT_SET_NO":999,"REV_AT_EPOCH":6773,"BSTAR":0.00040119,"MEAN_MOTION_DOT":0.00011259,"MEAN_MOTION_DDOT":0},{"OBJECT_NAME":"STARLINK-35562","OBJECT_ID":"2025-235F","EPOCH":"2026-03-09T11:27:33.813216","MEAN_MOTION":15.30214583,"ECCENTRICITY":0.0001349,"INCLINATION":53.159,"RA_OF_ASC_NODE":246.633,"ARG_OF_PERICENTER":86.7091,"MEAN_ANOMALY":273.4064,"EPHEMERIS_TYPE":0,"CLASSIFICATION_TYPE":"U","NORAD_CAT_ID":66063,"ELEMENT_SET_NO":999,"REV_AT_EPOCH":2288,"BSTAR":0.0013487,"MEAN_MOTION_DOT":0.00039818,"MEAN_MOTION_DDOT":0}]
